{"type": "FeatureCollection", "features": [ {"type": "Feature", "properties": {"norad_id": 66970, "name": "STARLINK-35703", "group": "last-30-days", "lat": 33.68907672450103, "lon": -118.17772073614475, "alt_km": 339.84964052276973, "timestamp": "2025-12-22T11:33:19.157112+00:00", "meta": {"OBJECT_NAME": "STARLINK-35703", "OBJECT_ID": "2025-288M", "EPOCH": "2025-12-22T04:00:01.998720", "MEAN_MOTION": 15.75030876, "ECCENTRICITY": 0.0001495, "INCLINATION": 43.0007, "RA_OF_ASC_NODE": 109.4077, "ARG_OF_PERICENTER": 262.1381, "MEAN_ANOMALY": 236.3279, "EPHEMERIS_TYPE": 0, "CLASSIFICATION_TYPE": "U", "NORAD_CAT_ID": 66970, "ELEMENT_SET_NO": 999, "REV_AT_EPOCH": 334, "BSTAR": 0.00023352, "MEAN_MOTION_DOT": 0.00035531, "MEAN_MOTION_DDOT": 0}, "tle": {"line1": "1 66970U 25288M   25356.16668980  .00035531  00000+0  23352-3 0  9992", "line2": "2 66970  43.0007 109.4077 0001495 262.1381 236.3279 15.75030876  3348"}}, "geometry": {"type": "Point", "coordinates": [-118.17772073614475, 33.68907672450103]}}, {"type": "Feature", "properties": {"norad_id": 66971, "name": "STARLINK-35678", "group": "last-30-days", "lat": 39.775875601238305, "lon": -135.75786322463588, "alt_km": 339.2963328692895, "timestamp": "2025-12-22T11:33:19.157123+00:00", "meta": {"OBJECT_NAME": "STARLINK-35678", "OBJECT_ID": "2025-288N", "EPOCH": "2025-12-22T04:00:01.998720", "MEAN_MOTION": 15.75032032, "ECCENTRICITY": 0.0001684, "INCLINATION": 43.0006, "RA_OF_ASC_NODE": 109.4474, "ARG_OF_PERICENTER": 279.7293, "MEAN_ANOMALY": 203.4145, "EPHEMERIS_TYPE": 0, "CLASSIFICATION_TYPE": "U", "NORAD_CAT_ID": 66971, "ELEMENT_SET_NO": 999, "REV_AT_EPOCH": 334, "BSTAR": 4.2063e-05, "MEAN_MOTION_DOT": 5.986e-05, "MEAN_MOTION_DDOT": 0}, "tle": {"line1": "1 66971U 25288N   25356.16668980  .00005986  00000+0  42063-4 0  9995", "line2": "2 66971  43.0006 109.4474 0001684 279.7293 203.4145 15.75032032  3348"}}, "geometry": {"type": "Point", "coordinates": [-135.75786322463588, 39.775875601238305]}}, {"type": "Feature", "properties": {"norad_id": 66972, "name": "STARLINK-34846", "group": "last-30-days", "lat": 39.16567775136434, "lon": -133.4122356827188, "alt_km": 339.3176216134516, "timestamp": "2025-12-22T11:33:19.157133+00:00", "meta": {"OBJECT_NAME": "STARLINK-34846", "OBJECT_ID": "2025-288P", "EPOCH": "2025-12-22T04:00:01.998720", "MEAN_MOTION": 15.75020928, "ECCENTRICITY": 0.0001716, "INCLINATION": 43.0007, "RA_OF_ASC_NODE": 109.4425, "ARG_OF_PERICENTER": 264.3144, "MEAN_ANOMALY": 220.7545, "EPHEMERIS_TYPE": 0, "CLASSIFICATION_TYPE": "U", "NORAD_CAT_ID": 66972, "ELEMENT_SET_NO": 999, "REV_AT_EPOCH": 334, "BSTAR": 0.00013211, "MEAN_MOTION_DOT": 0.00019848, "MEAN_MOTION_DDOT": 0}, "tle": {"line1": "1 66972U 25288P   25356.16668980  .00019848  00000+0  13211-3 0  9990", "line2": "2 66972  43.0007 109.4425 0001716 264.3144 220.7545 15.75020928  3344"}}, "geometry": {"type": "Point", "coordinates": [-133.4122356827188, 39.16567775136434]}}, {"type": "Feature", "properties": {"norad_id": 66973, "name": "STARLINK-35778", "group": "last-30-days", "lat": 38.508209957591916, "lon": -131.10569713526434, "alt_km": 339.7062961543552, "timestamp": "2025-12-22T11:33:19.157143+00:00", "meta": {"OBJECT_NAME": "STARLINK-35778", "OBJECT_ID": "2025-288Q", "EPOCH": "2025-12-22T04:00:01.998720", "MEAN_MOTION": 15.74995891, "ECCENTRICITY": 0.0002102, "INCLINATION": 43.0007, "RA_OF_ASC_NODE": 109.4378, "ARG_OF_PERICENTER": 273.007, "MEAN_ANOMALY": 213.988, "EPHEMERIS_TYPE": 0, "CLASSIFICATION_TYPE": "U", "NORAD_CAT_ID": 66973, "ELEMENT_SET_NO": 999, "REV_AT_EPOCH": 334, "BSTAR": 0.00041644, "MEAN_MOTION_DOT": 0.00063858, "MEAN_MOTION_DDOT": 0}, "tle": {"line1": "1 66973U 25288Q   25356.16668980  .00063858  00000+0  41644-3 0  9992", "line2": "2 66973  43.0007 109.4378 0002102 273.0070 213.9880 15.74995891  3342"}}, "geometry": {"type": "Point", "coordinates": [-131.10569713526434, 38.508209957591916]}}, {"type": "Feature", "properties": {"norad_id": 66974, "name": "STARLINK-35780", "group": "last-30-days", "lat": 37.805882537357995, "lon": -128.84123753711992, "alt_km": 339.31307173625464, "timestamp": "2025-12-22T11:33:19.157152+00:00", "meta": {"OBJECT_NAME": "STARLINK-35780", "OBJECT_ID": "2025-288R", "EPOCH": "2025-12-22T04:00:01.998720", "MEAN_MOTION": 15.74979342, "ECCENTRICITY": 0.0001352, "INCLINATION": 43.0008, "RA_OF_ASC_NODE": 109.4331, "ARG_OF_PERICENTER": 278.6618, "MEAN_ANOMALY": 210.246, "EPHEMERIS_TYPE": 0, "CLASSIFICATION_TYPE": "U", "NORAD_CAT_ID": 66974, "ELEMENT_SET_NO": 999, "REV_AT_EPOCH": 334, "BSTAR": 0.00073106, "MEAN_MOTION_DOT": 0.00113039, "MEAN_MOTION_DDOT": 0}, "tle": {"line1": "1 66974U 25288R   25356.16668980  .00113039  00000+0  73106-3 0  9998", "line2": "2 66974  43.0008 109.4331 0001352 278.6618 210.2460 15.74979342  3345"}}, "geometry": {"type": "Point", "coordinates": [-128.84123753711992, 37.805882537357995]}}, {"type": "Feature", "properties": {"norad_id": 66975, "name": "STARLINK-35777", "group": "last-30-days", "lat": 36.269270297840215, "lon": -124.43108154241416, "alt_km": 339.9327420463769, "timestamp": "2025-12-22T11:33:19.157165+00:00", "meta": {"OBJECT_NAME": "STARLINK-35777", "OBJECT_ID": "2025-288S", "EPOCH": "2025-12-22T04:00:01.998720", "MEAN_MOTION": 15.75014433, "ECCENTRICITY": 0.0001881, "INCLINATION": 43.0007, "RA_OF_ASC_NODE": 109.4226, "ARG_OF_PERICENTER": 276.5176, "MEAN_ANOMALY": 216.2299, "EPHEMERIS_TYPE": 0, "CLASSIFICATION_TYPE": "U", "NORAD_CAT_ID": 66975, "ELEMENT_SET_NO": 999, "REV_AT_EPOCH": 334, "BSTAR": 0.0001381, "MEAN_MOTION_DOT": 0.00020766, "MEAN_MOTION_DDOT": 0}, "tle": {"line1": "1 66975U 25288S   25356.16668980  .00020766  00000+0  13810-3 0  9999", "line2": "2 66975  43.0007 109.4226 0001881 276.5176 216.2299 15.75014433  3349"}}, "geometry": {"type": "Point", "coordinates": [-124.43108154241416, 36.269270297840215]}}, {"type": "Feature", "properties": {"norad_id": 66976, "name": "STARLINK-35772", "group": "last-30-days", "lat": -30.864436836471107, "lon": -31.970747097644708, "alt_km": 397.8177721518023, "timestamp": "2025-12-22T11:33:19.157175+00:00", "meta": {"OBJECT_NAME": "STARLINK-35772", "OBJECT_ID": "2025-288T", "EPOCH": "2025-12-22T04:00:01.998720", "MEAN_MOTION": 15.58876697, "ECCENTRICITY": 0.0001469, "INCLINATION": 43.0009, "RA_OF_ASC_NODE": 109.9999, "ARG_OF_PERICENTER": 262.1009, "MEAN_ANOMALY": 358.9831, "EPHEMERIS_TYPE": 0, "CLASSIFICATION_TYPE": "U", "NORAD_CAT_ID": 66976, "ELEMENT_SET_NO": 999, "REV_AT_EPOCH": 334, "BSTAR": -0.035955, "MEAN_MOTION_DOT": -0.02489682, "MEAN_MOTION_DDOT": 0}, "tle": {"line1": "1 66976U 25288T   25356.16668980 -.02489682  00000+0 -35955-1 0  9992", "line2": "2 66976  43.0009 109.9999 0001469 262.1009 358.9831 15.58876697  3347"}}, "geometry": {"type": "Point", "coordinates": [-31.970747097644708, -30.864436836471107]}}, {"type": "Feature", "properties": {"norad_id": 66977, "name": "STARLINK-35770", "group": "last-30-days", "lat": 35.44148252821328, "lon": -122.29180480438043, "alt_km": 339.64758810203057, "timestamp": "2025-12-22T11:33:19.157187+00:00", "meta": {"OBJECT_NAME": "STARLINK-35770", "OBJECT_ID": "2025-288U", "EPOCH": "2025-12-22T04:00:01.998720", "MEAN_MOTION": 15.75030909, "ECCENTRICITY": 0.0001386, "INCLINATION": 43.0007, "RA_OF_ASC_NODE": 109.4188, "ARG_OF_PERICENTER": 264.8013, "MEAN_ANOMALY": 229.8586, "EPHEMERIS_TYPE": 0, "CLASSIFICATION_TYPE": "U", "NORAD_CAT_ID": 66977, "ELEMENT_SET_NO": 999, "REV_AT_EPOCH": 334, "BSTAR": -1.0301e-05, "MEAN_MOTION_DOT": -2.059e-05, "MEAN_MOTION_DDOT": 0}, "tle": {"line1": "1 66977U 25288U   25356.16668980 -.00002059  00000+0 -10301-4 0  9991", "line2": "2 66977  43.0007 109.4188 0001386 264.8013 229.8586 15.75030909  3343"}}, "geometry": {"type": "Point", "coordinates": [-122.29180480438043, 35.44148252821328]}}, {"type": "Feature", "properties": {"norad_id": 66978, "name": "STARLINK-35787", "group": "last-30-days", "lat": 32.75584535129479, "lon": -116.16947289864675, "alt_km": 340.2554566152121, "timestamp": "2025-12-22T11:33:19.157197+00:00", "meta": {"OBJECT_NAME": "STARLINK-35787", "OBJECT_ID": "2025-288V", "EPOCH": "2025-12-22T04:00:01.998720", "MEAN_MOTION": 15.75036613, "ECCENTRICITY": 0.0001733, "INCLINATION": 43.0007, "RA_OF_ASC_NODE": 109.4035, "ARG_OF_PERICENTER": 270.9968, "MEAN_ANOMALY": 229.3975, "EPHEMERIS_TYPE": 0, "CLASSIFICATION_TYPE": "U", "NORAD_CAT_ID": 66978, "ELEMENT_SET_NO": 999, "REV_AT_EPOCH": 334, "BSTAR": 8.2654e-06, "MEAN_MOTION_DOT": 7.92e-06, "MEAN_MOTION_DDOT": 0}, "tle": {"line1": "1 66978U 25288V   25356.16668980  .00000792  00000+0  82654-5 0  9993", "line2": "2 66978  43.0007 109.4035 0001733 270.9968 229.3975 15.75036613  3343"}}, "geometry": {"type": "Point", "coordinates": [-116.16947289864675, 32.75584535129479]}}, {"type": "Feature", "properties": {"norad_id": 66979, "name": "STARLINK-36107", "group": "last-30-days", "lat": 31.788685609208283, "lon": -114.19901586703848, "alt_km": 340.2573254620984, "timestamp": "2025-12-22T11:33:19.157210+00:00", "meta": {"OBJECT_NAME": "STARLINK-36107", "OBJECT_ID": "2025-288W", "EPOCH": "2025-12-22T04:00:01.998720", "MEAN_MOTION": 15.75048047, "ECCENTRICITY": 0.0001672, "INCLINATION": 43.0007, "RA_OF_ASC_NODE": 109.3991, "ARG_OF_PERICENTER": 260.6653, "MEAN_ANOMALY": 241.659, "EPHEMERIS_TYPE": 0, "CLASSIFICATION_TYPE": "U", "NORAD_CAT_ID": 66979, "ELEMENT_SET_NO": 999, "REV_AT_EPOCH": 334, "BSTAR": -0.00022608, "MEAN_MOTION_DOT": -0.00035075, "MEAN_MOTION_DDOT": 0}, "tle": {"line1": "1 66979U 25288W   25356.16668980 -.00035075  00000+0 -22608-3 0  9999", "line2": "2 66979  43.0007 109.3991 0001672 260.6653 241.6590 15.75048047  3347"}}, "geometry": {"type": "Point", "coordinates": [-114.19901586703848, 31.788685609208283]}}]}